STARLINK-2758           
1 48638U 21044A   22287.18031895  .00002043  00000+0  15603-3 0  9992
2 48638  53.0552 294.4708 0001605  59.0900 301.0247 15.06399298 77407
STARLINK-2739           
1 48639U 21044B   22287.23192241  .00003747  00000+0  27024-3 0  9994
2 48639  53.0537 294.2430 0001945  50.9320 309.1842 15.06406236 77416
STARLINK-2736           
1 48640U 21044C   22286.76109553  .00003049  00000+0  22350-3 0  9999
2 48640  53.0556 296.6323 0001915  48.8843 311.2311 15.06401419 77276
STARLINK-2754           
1 48641U 21044D   22286.77351428  .00003361  00000+0  24440-3 0  9990
2 48641  53.0536 301.2891 0002191  42.0472 318.0685 15.06403199 76375
STARLINK-2646           
1 48642U 21044E   22286.52192277  .00001975  00000+0  15149-3 0  9994
2 48642  53.0542 302.4049 0001823  44.9536 315.1600 15.06389737 76336
STARLINK-2704           
1 48643U 21044F   22287.16695506  .00002033  00000+0  15531-3 0  9990
2 48643  53.0523 299.5224 0001804  55.3586 304.7573 15.06403572 77335
STARLINK-2695           
1 48644U 21044G   22286.76613465  .00001483  00000+0  11848-3 0  9995
2 48644  53.0552 301.3280 0001681  51.8207 308.2933 15.06394738 77215
STARLINK-2733           
1 48645U 21044H   22286.76245850  .00004661  00000+0  33162-3 0  9999
2 48645  53.0537 301.3536 0002237  53.3529 306.7666 15.06399198 76372
STARLINK-2732           
1 48646U 21044J   22286.75876240  .00002170  00000+0  16454-3 0  9990
2 48646  53.0555 301.3603 0001770  58.3935 301.7226 15.06396288 76379
STARLINK-2691           
1 48647U 21044K   22286.75508984  .00000110  00000+0  26311-4 0  9994
2 48647  53.0552 301.3766 0001667  59.6114 300.5040 15.06377501 77273
STARLINK-2521           
1 48648U 21044L   22286.76983333  .00000868  00000+0  77176-4 0  9996
2 48648  53.0554 301.4735 0001839  47.7468 312.3677 15.06401557 77214
STARLINK-2673           
1 48649U 21044M   22287.21581871  .00002141  00000+0  16259-3 0  9999
2 48649  53.0531 299.3075 0002127  50.0873 310.0302 15.06403636 77276
STARLINK-2672           
1 48650U 21044N   22287.21212971  .00001699  00000+0  13294-3 0  9996
2 48650  53.0532 299.3282 0001714  49.6930 310.4208 15.06401880 77276
STARLINK-2731           
1 48651U 21044P   22287.27479310  .00000545  00000+0  55474-4 0  9991
2 48651  53.0540 299.0413 0001962  44.3382 315.7763 15.06402564 77282
STARLINK-2727           
1 48652U 21044Q   22287.20476136  .00003506  00000+0  25411-3 0  9995
2 48652  53.0528 299.3639 0001711  48.5084 311.6052 15.06402299 77279
STARLINK-2720           
1 48653U 21044R   22286.73664479  .00002180  00000+0  16525-3 0  9995
2 48653  53.0551 301.4616 0001809  48.7031 311.4114 15.06396448 76362
STARLINK-2651           
1 48654U 21044S   22287.19738560  .00001000  00000+0  86053-4 0  9994
2 48654  53.0543 299.3951 0001711  61.7607 298.3555 15.06397744 77337
STARLINK-2657           
1 48655U 21044T   22286.46388842  .00001701  00000+0  13310-3 0  9991
2 48655  53.0551 302.6875 0002014  42.1111 318.0032 15.06396765 76320
STARLINK-2701           
1 48656U 21044U   22286.52655183  .00002379  00000+0  17858-3 0  9997
2 48656  53.0550 302.4074 0001856  41.8452 318.2679 15.06395402 76333
STARLINK-2734           
1 48657U 21044V   22286.52286324  .00002155  00000+0  16356-3 0  9999
2 48657  53.0551 302.4120 0001979  50.4115 309.7049 15.06394541 76334
STARLINK-2647           
1 48658U 21044W   22287.18264731 -.00000612  00000+0 -22148-4 0  9996
2 48658  53.0531 299.4605 0002206  50.1640 309.9543 15.06407155 77338
STARLINK-2717           
1 48659U 21044X   22286.78088102 -.00000007  00000+0  18419-4 0  9991
2 48659  53.0559 301.2621 0002200  45.5258 314.5911 15.06396891 77218
STARLINK-2688           
1 48660U 21044Y   22287.17527500  .00000879  00000+0  77921-4 0  9996
2 48660  53.0555 299.4892 0001957  57.6503 302.4676 15.06401617 77272
STARLINK-2708           
1 48661U 21044Z   22287.17619416  .00000613  00000+0  60074-4 0  9992
2 48661  53.0541 289.4683 0002166  39.3121 320.8025 15.06400780 77475
STARLINK-2726           
1 48662U 21044AA  22287.17250925  .00001967  00000+0  15092-3 0  9991
2 48662  53.0534 289.5085 0001650  52.1540 307.9598 15.06404614 77415
STARLINK-2667           
1 48663U 21044AB  22287.16882773  .00000837  00000+0  75075-4 0  9996
2 48663  53.0545 289.5188 0001863  54.9066 305.2097 15.06397590 77410
STARLINK-2709           
1 48664U 21044AC  22287.16513410  .00001353  00000+0  10969-3 0  9990
2 48664  53.0552 289.5369 0002233  48.6657 311.4524 15.06403980 77479
STARLINK-2653           
1 48665U 21044AD  22287.17893376  .00002314  00000+0  17420-3 0  9991
2 48665  53.0544 289.4584 0001936  43.6208 316.4934 15.06397793 77479
STARLINK-2666           
1 48666U 21044AE  22287.19099413  .00001779  00000+0  13832-3 0  9991
2 48666  53.0541 289.8974 0001806  47.9447 312.1696 15.06402784 77466
STARLINK-2735           
1 48667U 21044AF  22287.16145590  .00000979  00000+0  84654-4 0  9999
2 48667  53.0559 289.5559 0001762  65.6646 294.4527 15.06394236 77413
STARLINK-2738           
1 48668U 21044AG  22287.15776290  .00001288  00000+0  10538-3 0  9999
2 48668  53.0544 289.5628 0001912  52.3059 307.8103 15.06402312 77473
STARLINK-2707           
1 48669U 21044AH  22287.28676987  .00000800  00000+0  72588-4 0  9999
2 48669  53.0560 288.9713 0001522  67.4682 292.6468 15.06401537 77424
STARLINK-2763           
1 48670U 21044AJ  22286.75230777  .00002388  00000+0  17912-3 0  9997
2 48670  53.0555 291.3709 0001902  63.7458 296.3726 15.06402567 76505
STARLINK-2745           
1 48671U 21044AK  22287.21305263  .00000945  00000+0  82369-4 0  9999
2 48671  53.0537 289.3170 0001896  58.5950 301.5224 15.06401206 77418
STARLINK-2705           
1 48672U 21044AL  22286.74494882  .00000147  00000+0  28820-4 0  9999
2 48672  53.0522 291.4282 0002036  55.5355 304.5826 15.06388034 76507
STARLINK-2711           
1 48673U 21044AM  22287.20568395  .00004363  00000+0  31158-3 0  9994
2 48673  53.0525 289.3578 0002110  61.2692 298.8509 15.06409135 77472
STARLINK-2712           
1 48674U 21044AN  22287.20105690 -.00003617  00000+0 -22409-3 0  9992
2 48674  53.0537 289.3646 0001897  49.6303 310.4851 15.06385441 77476
STARLINK-2737           
1 48675U 21044AP  22286.73388435  .00001850  00000+0  14309-3 0  9995
2 48675  53.0545 291.4782 0001871  48.0791 312.0357 15.06396575 76509
STARLINK-2746           
1 48676U 21044AQ  22287.19462643  .00002595  00000+0  19302-3 0  9996
2 48676  53.0543 289.3987 0001796  55.8043 304.3116 15.06401959 77470
STARLINK-2719           
1 48677U 21044AR  22287.25634215  .00001022  00000+0  87480-4 0  9997
2 48677  53.0545 289.1175 0002049  50.5593 309.5577 15.06399254 77421
STARLINK-2615           
1 48678U 21044AS  22287.18724869  .00002640  00000+0  19607-3 0  9997
2 48678  53.0557 289.4393 0001778  58.7619 301.3544 15.06405163 77417
STARLINK-2648           
1 48679U 21044AT  22287.18356414  .00001277  00000+0  10461-3 0  9999
2 48679  53.0539 289.4590 0001677  61.8230 298.2928 15.06402644 77410
STARLINK-2649           
1 48680U 21044AU  22286.71545334  .00002734  00000+0  20237-3 0  9991
2 48680  53.0534 291.5597 0001819  48.4834 311.6311 15.06396906 76505
STARLINK-2725           
1 48681U 21044AV  22287.17899445  .00003305  00000+0  24068-3 0  9999
2 48681  53.0557 259.7100 0001415  74.0695 286.0450 15.06395153 77883
STARLINK-2743           
1 48682U 21044AW  22286.64544006  .00001608  00000+0  12684-3 0  9996
2 48682  53.0553 252.0324 0001658  58.0824 302.0326 15.06399111 77046
STARLINK-2756           
1 48683U 21044AX  22287.19830507 -.00003358  00000+0 -20666-3 0  9997
2 48683  53.0533 249.4013 0001534  54.0612 306.0519 15.06394732 77978
STARLINK-2741           
1 48684U 21044AY  22287.15458139  .00000002  00000+0  19023-4 0  9998
2 48684  53.0555 264.9302 0001485  69.7029 290.4120 15.06412894 77813
STARLINK-2751           
1 48685U 21044AZ  22286.63805710  .00001908  00000+0  14699-3 0  9991
2 48685  53.0531 251.9538 0001576  66.9840 293.1315 15.06392763 77050
STARLINK-2629           
1 48686U 21044BA  22287.16286785  .00002169  00000+0  16444-3 0  9996
2 48686  53.0546 254.8252 0001703  54.8390 305.2759 15.06400623 77951
STARLINK-2627           
1 48687U 21044BB  22287.20430171  .00000783  00000+0  71438-4 0  9997
2 48687  53.0546 244.3546 0001532  79.3727 280.7434 15.06399315 78041
STARLINK-2742           
1 48688U 21044BC  22287.20799206  .00003824  00000+0  27557-3 0  9996
2 48688  53.0551 244.3448 0001672  67.6472 292.4694 15.06389596 78049
STARLINK-2617           
1 48689U 21044BD  22286.61593026  .00000907  00000+0  79794-4 0  9993
2 48689  53.0555 251.9746 0001514  76.3703 283.7455 15.06388406 77044
STARLINK-2740           
1 48690U 21044BE  22286.35699931  .00001444  00000+0  11585-3 0  9998
2 48690  53.0545 263.1645 0001522  65.2454 294.8693 15.06391312 76863
STARLINK-2750           
1 48691U 21044BF  22286.66154811  .00004238  00000+0  30323-3 0  9991
2 48691  53.0555 256.7987 0001594  76.6171 283.4996 15.06400388 76980
STARLINK-2752           
1 48692U 21044BG  22286.64682052  .00003919  00000+0  28188-3 0  9994
2 48692  53.0543 256.9822 0001584  75.5045 284.6119 15.06398484 76988
STARLINK-2618           
1 48693U 21044BH  22287.18538936  .00002936  00000+0  21596-3 0  9990
2 48693  53.0544 259.4395 0001543  74.4380 285.6779 15.06397467 77836
STARLINK-2748           
1 48694U 21044BJ  22287.21994082  .00002769  00000+0  20469-3 0  9995
2 48694  53.0543 264.2874 0001962  34.7320 325.3796 15.06404325 77765
STARLINK-2616           
1 48695U 21044BK  22286.64588456  .00001672  00000+0  13115-3 0  9998
2 48695  53.0544 266.9140 0001629  58.1346 301.9801 15.06393108 76841
STARLINK-2753           
1 48696U 21044BL  22286.70255977  .00001248  00000+0  10266-3 0  9998
2 48696  53.0559 271.6502 0001567  63.3362 296.7787 15.06397183 76784
STARLINK-2715           
1 48697U 21044BM  22287.19648316  .00016808  00000+0  11441-2 0  9999
2 48697  53.0544 269.3992 0001762  68.4113 291.7063 15.06416320 77691
